{"type": "FeatureCollection", "features": [ {"type": "Feature", "properties": {"norad_id": 30689, "name": "FENGYUN 1C DEB", "group": "fengyun-1c-debris", "lat": -69.89284248084361, "lon": 121.98832929027581, "alt_km": 912.3464003665958, "timestamp": "2025-12-06T07:31:40.514998+00:00", "meta": {"OBJECT_NAME": "FENGYUN 1C DEB", "OBJECT_ID": "1999-025AQX", "EPOCH": "2025-12-03T22:28:27.456096", "MEAN_MOTION": 14.11748662, "ECCENTRICITY": 0.01115151, "INCLINATION": 98.7074, "RA_OF_ASC_NODE": 324.4278, "ARG_OF_PERICENTER": 128.1488, "MEAN_ANOMALY": 287.5683, "EPHEMERIS_TYPE": 0, "CLASSIFICATION_TYPE": "U", "NORAD_CAT_ID": 30689, "ELEMENT_SET_NO": 999, "REV_AT_EPOCH": 96766, "BSTAR": 0.00055107771, "MEAN_MOTION_DOT": 1.023e-05, "MEAN_MOTION_DDOT": 0}, "tle": {"line1": "1 30689U 99025AQX 25337.93642889  .00001023  00000+0  55108-3 0  9997", "line2": "2 30689  98.7074 324.4278 0111515 128.1488 287.5683 14.11748662967662"}}, "geometry": {"type": "Point", "coordinates": [121.98832929027581, -69.89284248084361]}}, {"type": "Feature", "properties": {"norad_id": 30690, "name": "FENGYUN 1C DEB", "group": "fengyun-1c-debris", "lat": 22.536304753631086, "lon": 94.5165134865428, "alt_km": 850.9492396987571, "timestamp": "2025-12-06T07:31:40.515008+00:00", "meta": {"OBJECT_NAME": "FENGYUN 1C DEB", "OBJECT_ID": "1999-025AQY", "EPOCH": "2025-12-04T12:16:02.501184", "MEAN_MOTION": 14.02276988, "ECCENTRICITY": 0.010452, "INCLINATION": 99.1597, "RA_OF_ASC_NODE": 268.8664, "ARG_OF_PERICENTER": 98.507, "MEAN_ANOMALY": 322.9179, "EPHEMERIS_TYPE": 0, "CLASSIFICATION_TYPE": "U", "NORAD_CAT_ID": 30690, "ELEMENT_SET_NO": 999, "REV_AT_EPOCH": 95592, "BSTAR": 0.0021875, "MEAN_MOTION_DOT": 3.474e-05, "MEAN_MOTION_DDOT": 0}, "tle": {"line1": "1 30690U 99025AQY 25338.51114006  .00003474  00000+0  21875-2 0  9994", "line2": "2 30690  99.1597 268.8664 0104520  98.5070 322.9179 14.02276988955921"}}, "geometry": {"type": "Point", "coordinates": [94.5165134865428, 22.536304753631086]}}, {"type": "Feature", "properties": {"norad_id": 30691, "name": "FENGYUN 1C DEB", "group": "fengyun-1c-debris", "lat": 81.25098964755738, "lon": -97.06863048969534, "alt_km": 1019.14685385337, "timestamp": "2025-12-06T07:31:40.515018+00:00", "meta": {"OBJECT_NAME": "FENGYUN 1C DEB", "OBJECT_ID": "1999-025AQZ", "EPOCH": "2025-12-04T12:37:57.967968", "MEAN_MOTION": 13.89397737, "ECCENTRICITY": 0.0139074, "INCLINATION": 98.7428, "RA_OF_ASC_NODE": 350.4328, "ARG_OF_PERICENTER": 255.6423, "MEAN_ANOMALY": 259.8588, "EPHEMERIS_TYPE": 0, "CLASSIFICATION_TYPE": "U", "NORAD_CAT_ID": 30691, "ELEMENT_SET_NO": 999, "REV_AT_EPOCH": 95002, "BSTAR": 0.001825, "MEAN_MOTION_DOT": 2.365e-05, "MEAN_MOTION_DDOT": 0}, "tle": {"line1": "1 30691U 99025AQZ 25338.52636537  .00002365  00000+0  18250-2 0  9995", "line2": "2 30691  98.7428 350.4328 0139074 255.6423 259.8588 13.89397737950023"}}, "geometry": {"type": "Point", "coordinates": [-97.06863048969534, 81.25098964755738]}}, {"type": "Feature", "properties": {"norad_id": 30693, "name": "FENGYUN 1C DEB", "group": "fengyun-1c-debris", "lat": 13.60681972390395, "lon": -36.49083398813734, "alt_km": 869.8348160379019, "timestamp": "2025-12-06T07:31:40.515029+00:00", "meta": {"OBJECT_NAME": "FENGYUN 1C DEB", "OBJECT_ID": "1999-025ARB", "EPOCH": "2025-12-04T04:29:17.934432", "MEAN_MOTION": 14.13271306, "ECCENTRICITY": 0.0028886, "INCLINATION": 98.6856, "RA_OF_ASC_NODE": 323.5656, "ARG_OF_PERICENTER": 191.9396, "MEAN_ANOMALY": 168.1095, "EPHEMERIS_TYPE": 0, "CLASSIFICATION_TYPE": "U", "NORAD_CAT_ID": 30693, "ELEMENT_SET_NO": 999, "REV_AT_EPOCH": 96814, "BSTAR": 0.00055633, "MEAN_MOTION_DOT": 1.004e-05, "MEAN_MOTION_DDOT": 0}, "tle": {"line1": "1 30693U 99025ARB 25338.18701313  .00001004  00000+0  55633-3 0  9990", "line2": "2 30693  98.6856 323.5656 0028886 191.9396 168.1095 14.13271306968141"}}, "geometry": {"type": "Point", "coordinates": [-36.49083398813734, 13.60681972390395]}}, {"type": "Feature", "properties": {"norad_id": 30694, "name": "FENGYUN 1C DEB", "group": "fengyun-1c-debris", "lat": 21.03770071082404, "lon": -57.88265957343848, "alt_km": 571.1919864399433, "timestamp": "2025-12-06T07:31:40.515039+00:00", "meta": {"OBJECT_NAME": "FENGYUN 1C DEB", "OBJECT_ID": "1999-025ARC", "EPOCH": "2025-12-04T16:39:08.549280", "MEAN_MOTION": 14.86053707, "ECCENTRICITY": 0.01321587, "INCLINATION": 99.046, "RA_OF_ASC_NODE": 303.7895, "ARG_OF_PERICENTER": 320.6213, "MEAN_ANOMALY": 38.5447, "EPHEMERIS_TYPE": 0, "CLASSIFICATION_TYPE": "U", "NORAD_CAT_ID": 30694, "ELEMENT_SET_NO": 999, "REV_AT_EPOCH": 99982, "BSTAR": 0.0035938573, "MEAN_MOTION_DOT": 0.0003695, "MEAN_MOTION_DDOT": 0}, "tle": {"line1": "1 30694U 99025ARC 25338.69384895  .00036950  00000+0  35939-2 0  9993", "line2": "2 30694  99.0460 303.7895 0132158 320.6213  38.5447 14.86053707999823"}}, "geometry": {"type": "Point", "coordinates": [-57.88265957343848, 21.03770071082404]}}, {"type": "Feature", "properties": {"norad_id": 30696, "name": "FENGYUN 1C DEB", "group": "fengyun-1c-debris", "lat": -21.935841184055942, "lon": -153.99341781883427, "alt_km": 713.121354385923, "timestamp": "2025-12-06T07:31:40.515049+00:00", "meta": {"OBJECT_NAME": "FENGYUN 1C DEB", "OBJECT_ID": "1999-025ARE", "EPOCH": "2025-12-04T19:58:24.965760", "MEAN_MOTION": 14.44688128, "ECCENTRICITY": 0.00899451, "INCLINATION": 98.3899, "RA_OF_ASC_NODE": 27.9515, "ARG_OF_PERICENTER": 149.4354, "MEAN_ANOMALY": 271.4631, "EPHEMERIS_TYPE": 0, "CLASSIFICATION_TYPE": "U", "NORAD_CAT_ID": 30696, "ELEMENT_SET_NO": 999, "REV_AT_EPOCH": 98190, "BSTAR": 0.0020496298, "MEAN_MOTION_DOT": 7.427e-05, "MEAN_MOTION_DDOT": 0}, "tle": {"line1": "1 30696U 99025ARE 25338.83223340  .00007427  00000+0  20496-2 0  9997", "line2": "2 30696  98.3899  27.9515 0089945 149.4354 271.4631 14.44688128981903"}}, "geometry": {"type": "Point", "coordinates": [-153.99341781883427, -21.935841184055942]}}, {"type": "Feature", "properties": {"norad_id": 30697, "name": "FENGYUN 1C DEB", "group": "fengyun-1c-debris", "lat": -26.70435102203208, "lon": 41.70848388331366, "alt_km": 893.572312139594, "timestamp": "2025-12-06T07:31:40.515059+00:00", "meta": {"OBJECT_NAME": "FENGYUN 1C DEB", "OBJECT_ID": "1999-025ARF", "EPOCH": "2025-12-04T15:36:00.756000", "MEAN_MOTION": 14.13445219, "ECCENTRICITY": 0.0087816, "INCLINATION": 98.9078, "RA_OF_ASC_NODE": 35.5271, "ARG_OF_PERICENTER": 207.8421, "MEAN_ANOMALY": 303.7406, "EPHEMERIS_TYPE": 0, "CLASSIFICATION_TYPE": "U", "NORAD_CAT_ID": 30697, "ELEMENT_SET_NO": 999, "REV_AT_EPOCH": 96146, "BSTAR": 0.0032239, "MEAN_MOTION_DOT": 6.249e-05, "MEAN_MOTION_DDOT": 0}, "tle": {"line1": "1 30697U 99025ARF 25338.65000875  .00006249  00000+0  32239-2 0  9993", "line2": "2 30697  98.9078  35.5271 0087816 207.8421 303.7406 14.13445219961468"}}, "geometry": {"type": "Point", "coordinates": [41.70848388331366, -26.70435102203208]}}, {"type": "Feature", "properties": {"norad_id": 30699, "name": "FENGYUN 1C DEB", "group": "fengyun-1c-debris", "lat": 49.30894972262536, "lon": 88.15452884135321, "alt_km": 733.7782946302696, "timestamp": "2025-12-06T07:31:40.515070+00:00", "meta": {"OBJECT_NAME": "FENGYUN 1C DEB", "OBJECT_ID": "1999-025ARH", "EPOCH": "2025-12-05T06:23:57.311520", "MEAN_MOTION": 14.46741996, "ECCENTRICITY": 0.00037128, "INCLINATION": 99.3123, "RA_OF_ASC_NODE": 98.0055, "ARG_OF_PERICENTER": 270.8769, "MEAN_ANOMALY": 89.1995, "EPHEMERIS_TYPE": 0, "CLASSIFICATION_TYPE": "U", "NORAD_CAT_ID": 30699, "ELEMENT_SET_NO": 999, "REV_AT_EPOCH": 97505, "BSTAR": 0.00445373, "MEAN_MOTION_DOT": 0.000161, "MEAN_MOTION_DDOT": 0}, "tle": {"line1": "1 30699U 99025ARH 25339.26663555  .00016100  00000+0  44537-2 0  9994", "line2": "2 30699  99.3123  98.0055 0003712 270.8769  89.1995 14.46741996975053"}}, "geometry": {"type": "Point", "coordinates": [88.15452884135321, 49.30894972262536]}}, {"type": "Feature", "properties": {"norad_id": 30700, "name": "FENGYUN 1C DEB", "group": "fengyun-1c-debris", "lat": -42.802052249972625, "lon": 16.813653439193214, "alt_km": 875.5145291515018, "timestamp": "2025-12-06T07:31:40.515080+00:00", "meta": {"OBJECT_NAME": "FENGYUN 1C DEB", "OBJECT_ID": "1999-025ARJ", "EPOCH": "2025-12-03T07:12:35.856000", "MEAN_MOTION": 14.23780889, "ECCENTRICITY": 0.0086694, "INCLINATION": 98.5427, "RA_OF_ASC_NODE": 5.885, "ARG_OF_PERICENTER": 170.6255, "MEAN_ANOMALY": 189.6567, "EPHEMERIS_TYPE": 0, "CLASSIFICATION_TYPE": "U", "NORAD_CAT_ID": 30700, "ELEMENT_SET_NO": 999, "REV_AT_EPOCH": 97435, "BSTAR": 0.00026931, "MEAN_MOTION_DOT": 5.98e-06, "MEAN_MOTION_DDOT": 0}, "tle": {"line1": "1 30700U 99025ARJ 25337.30041500  .00000598  00000+0  26931-3 0  9993", "line2": "2 30700  98.5427   5.8850 0086694 170.6255 189.6567 14.23780889974352"}}, "geometry": {"type": "Point", "coordinates": [16.813653439193214, -42.802052249972625]}}, {"type": "Feature", "properties": {"norad_id": 30701, "name": "FENGYUN 1C DEB", "group": "fengyun-1c-debris", "lat": -19.08157086720661, "lon": -161.2725535928817, "alt_km": 845.8546191753439, "timestamp": "2025-12-06T07:31:40.515090+00:00", "meta": {"OBJECT_NAME": "FENGYUN 1C DEB", "OBJECT_ID": "1999-025ARK", "EPOCH": "2025-12-05T01:58:37.506720", "MEAN_MOTION": 14.1393376, "ECCENTRICITY": 0.00355746, "INCLINATION": 98.7195, "RA_OF_ASC_NODE": 20.5696, "ARG_OF_PERICENTER": 123.9823, "MEAN_ANOMALY": 290.8889, "EPHEMERIS_TYPE": 0, "CLASSIFICATION_TYPE": "U", "NORAD_CAT_ID": 30701, "ELEMENT_SET_NO": 999, "REV_AT_EPOCH": 97011, "BSTAR": 3.5641884e-05, "MEAN_MOTION_DOT": 2.5e-07, "MEAN_MOTION_DDOT": 0}, "tle": {"line1": "1 30701U 99025ARK 25339.08237855  .00000025  00000+0  35642-4 0  9996", "line2": "2 30701  98.7195  20.5696 0035574 123.9823 290.8889 14.13933760970111"}}, "geometry": {"type": "Point", "coordinates": [-161.2725535928817, -19.08157086720661]}}]}